{"type": "FeatureCollection", "features": [ {"type": "Feature", "properties": {"norad_id": 30146, "name": "FENGYUN 1C DEB", "group": "fengyun-1c-debris", "lat": -77.73803970295346, "lon": -163.70603085683695, "alt_km": 1077.6320093278873, "timestamp": "2025-12-23T18:59:32.242000+00:00", "meta": {"OBJECT_NAME": "FENGYUN 1C DEB", "OBJECT_ID": "1999-025TB", "EPOCH": "2025-12-23T04:38:27.191328", "MEAN_MOTION": 13.86615279, "ECCENTRICITY": 0.01786923, "INCLINATION": 98.0203, "RA_OF_ASC_NODE": 155.3368, "ARG_OF_PERICENTER": 93.9415, "MEAN_ANOMALY": 82.3152, "EPHEMERIS_TYPE": 0, "CLASSIFICATION_TYPE": "U", "NORAD_CAT_ID": 30146, "ELEMENT_SET_NO": 999, "REV_AT_EPOCH": 95562, "BSTAR": 0.00048589592, "MEAN_MOTION_DOT": 6.07e-06, "MEAN_MOTION_DDOT": 0}, "tle": {"line1": "1 30146U 99025TB  25357.19337027  .00000607  00000+0  48590-3 0  9994", "line2": "2 30146  98.0203 155.3368 0178692  93.9415  82.3152 13.86615279955629"}}, "geometry": {"type": "Point", "coordinates": [-163.70603085683695, -77.73803970295346]}}, {"type": "Feature", "properties": {"norad_id": 30148, "name": "FENGYUN 1C DEB", "group": "fengyun-1c-debris", "lat": 20.0850340957973, "lon": 143.8286602448888, "alt_km": 1016.0556157273559, "timestamp": "2025-12-23T18:59:32.242010+00:00", "meta": {"OBJECT_NAME": "FENGYUN 1C DEB", "OBJECT_ID": "1999-025TD", "EPOCH": "2025-12-21T16:49:17.779872", "MEAN_MOTION": 13.8850542, "ECCENTRICITY": 0.01350313, "INCLINATION": 99.5457, "RA_OF_ASC_NODE": 145.2173, "ARG_OF_PERICENTER": 172.8987, "MEAN_ANOMALY": 204.6547, "EPHEMERIS_TYPE": 0, "CLASSIFICATION_TYPE": "U", "NORAD_CAT_ID": 30148, "ELEMENT_SET_NO": 999, "REV_AT_EPOCH": 95641, "BSTAR": 0.00064340348, "MEAN_MOTION_DOT": 7.85e-06, "MEAN_MOTION_DDOT": 0}, "tle": {"line1": "1 30148U 99025TD  25355.70090023  .00000785  00000+0  64340-3 0  9991", "line2": "2 30148  99.5457 145.2173 0135031 172.8987 204.6547 13.88505420956414"}}, "geometry": {"type": "Point", "coordinates": [143.8286602448888, 20.0850340957973]}}, {"type": "Feature", "properties": {"norad_id": 30150, "name": "FENGYUN 1C DEB", "group": "fengyun-1c-debris", "lat": 78.86066782239935, "lon": 79.80912324474943, "alt_km": 1011.1562142264756, "timestamp": "2025-12-23T18:59:32.242019+00:00", "meta": {"OBJECT_NAME": "FENGYUN 1C DEB", "OBJECT_ID": "1999-025TF", "EPOCH": "2025-12-20T23:38:11.515200", "MEAN_MOTION": 13.86604179, "ECCENTRICITY": 0.0146393, "INCLINATION": 98.9949, "RA_OF_ASC_NODE": 130.663, "ARG_OF_PERICENTER": 313.7302, "MEAN_ANOMALY": 166.7452, "EPHEMERIS_TYPE": 0, "CLASSIFICATION_TYPE": "U", "NORAD_CAT_ID": 30150, "ELEMENT_SET_NO": 999, "REV_AT_EPOCH": 95572, "BSTAR": 0.00049378, "MEAN_MOTION_DOT": 5.81e-06, "MEAN_MOTION_DDOT": 0}, "tle": {"line1": "1 30150U 99025TF  25354.98485550  .00000581  00000+0  49378-3 0  9994", "line2": "2 30150  98.9949 130.6630 0146393 313.7302 166.7452 13.86604179955727"}}, "geometry": {"type": "Point", "coordinates": [79.80912324474943, 78.86066782239935]}}, {"type": "Feature", "properties": {"norad_id": 30151, "name": "FENGYUN 1C DEB", "group": "fengyun-1c-debris", "lat": 21.40519563493057, "lon": -171.02580126343477, "alt_km": 947.3471826470723, "timestamp": "2025-12-23T18:59:32.242028+00:00", "meta": {"OBJECT_NAME": "FENGYUN 1C DEB", "OBJECT_ID": "1999-025TG", "EPOCH": "2025-12-23T01:12:36.954144", "MEAN_MOTION": 13.84485841, "ECCENTRICITY": 0.01632042, "INCLINATION": 99.063, "RA_OF_ASC_NODE": 4.6717, "ARG_OF_PERICENTER": 250.9436, "MEAN_ANOMALY": 178.2795, "EPHEMERIS_TYPE": 0, "CLASSIFICATION_TYPE": "U", "NORAD_CAT_ID": 30151, "ELEMENT_SET_NO": 999, "REV_AT_EPOCH": 95388, "BSTAR": 0.00046563034, "MEAN_MOTION_DOT": 5.35e-06, "MEAN_MOTION_DDOT": 0}, "tle": {"line1": "1 30151U 99025TG  25357.05042771  .00000535  00000+0  46563-3 0  9992", "line2": "2 30151  99.0630   4.6717 0163204 250.9436 178.2795 13.84485841953887"}}, "geometry": {"type": "Point", "coordinates": [-171.02580126343477, 21.40519563493057]}}, {"type": "Feature", "properties": {"norad_id": 30152, "name": "FENGYUN 1C DEB", "group": "fengyun-1c-debris", "lat": 48.105738433226264, "lon": -154.86356527559977, "alt_km": 782.9302556276225, "timestamp": "2025-12-23T18:59:32.242037+00:00", "meta": {"OBJECT_NAME": "FENGYUN 1C DEB", "OBJECT_ID": "1999-025TH", "EPOCH": "2025-12-23T01:34:24.147264", "MEAN_MOTION": 13.96759592, "ECCENTRICITY": 0.01624713, "INCLINATION": 99.0808, "RA_OF_ASC_NODE": 214.6894, "ARG_OF_PERICENTER": 56.9959, "MEAN_ANOMALY": 304.6699, "EPHEMERIS_TYPE": 0, "CLASSIFICATION_TYPE": "U", "NORAD_CAT_ID": 30152, "ELEMENT_SET_NO": 999, "REV_AT_EPOCH": 95522, "BSTAR": 0.0023250316, "MEAN_MOTION_DOT": 3.567e-05, "MEAN_MOTION_DDOT": 0}, "tle": {"line1": "1 30152U 99025TH  25357.06555726  .00003567  00000+0  23250-2 0  9998", "line2": "2 30152  99.0808 214.6894 0162471  56.9959 304.6699 13.96759592955221"}}, "geometry": {"type": "Point", "coordinates": [-154.86356527559977, 48.105738433226264]}}, {"type": "Feature", "properties": {"norad_id": 30153, "name": "FENGYUN 1C DEB", "group": "fengyun-1c-debris", "lat": 54.269030119609084, "lon": -25.57378234916717, "alt_km": 929.7316457614597, "timestamp": "2025-12-23T18:59:32.242046+00:00", "meta": {"OBJECT_NAME": "FENGYUN 1C DEB", "OBJECT_ID": "1999-025TJ", "EPOCH": "2025-12-21T21:43:52.195008", "MEAN_MOTION": 13.7879482, "ECCENTRICITY": 0.02005224, "INCLINATION": 100.4675, "RA_OF_ASC_NODE": 347.2363, "ARG_OF_PERICENTER": 342.3749, "MEAN_ANOMALY": 74.9859, "EPHEMERIS_TYPE": 0, "CLASSIFICATION_TYPE": "U", "NORAD_CAT_ID": 30153, "ELEMENT_SET_NO": 999, "REV_AT_EPOCH": 94901, "BSTAR": 0.0010763657, "MEAN_MOTION_DOT": 1.219e-05, "MEAN_MOTION_DDOT": 0}, "tle": {"line1": "1 30153U 99025TJ  25355.90546522  .00001219  00000+0  10764-2 0  9992", "line2": "2 30153 100.4675 347.2363 0200522 342.3749  74.9859 13.78794820949012"}}, "geometry": {"type": "Point", "coordinates": [-25.57378234916717, 54.269030119609084]}}, {"type": "Feature", "properties": {"norad_id": 30154, "name": "FENGYUN 1C DEB", "group": "fengyun-1c-debris", "lat": -49.40777226579847, "lon": -151.48090604305654, "alt_km": 883.385203119079, "timestamp": "2025-12-23T18:59:32.242055+00:00", "meta": {"OBJECT_NAME": "FENGYUN 1C DEB", "OBJECT_ID": "1999-025TK", "EPOCH": "2025-12-22T02:19:31.171584", "MEAN_MOTION": 13.86022788, "ECCENTRICITY": 0.01829725, "INCLINATION": 98.4487, "RA_OF_ASC_NODE": 36.9778, "ARG_OF_PERICENTER": 173.3266, "MEAN_ANOMALY": 244.7454, "EPHEMERIS_TYPE": 0, "CLASSIFICATION_TYPE": "U", "NORAD_CAT_ID": 30154, "ELEMENT_SET_NO": 999, "REV_AT_EPOCH": 95114, "BSTAR": 0.0012346419, "MEAN_MOTION_DOT": 1.583e-05, "MEAN_MOTION_DDOT": 0}, "tle": {"line1": "1 30154U 99025TK  25356.09688856  .00001583  00000+0  12346-2 0  9993", "line2": "2 30154  98.4487  36.9778 0182972 173.3266 244.7454 13.86022788951147"}}, "geometry": {"type": "Point", "coordinates": [-151.48090604305654, -49.40777226579847]}}, {"type": "Feature", "properties": {"norad_id": 30155, "name": "FENGYUN 1C DEB", "group": "fengyun-1c-debris", "lat": -35.02970705938562, "lon": 78.466166942741, "alt_km": 815.6210343162511, "timestamp": "2025-12-23T18:59:32.242064+00:00", "meta": {"OBJECT_NAME": "FENGYUN 1C DEB", "OBJECT_ID": "1999-025TL", "EPOCH": "2025-12-23T05:10:32.293056", "MEAN_MOTION": 13.7384486, "ECCENTRICITY": 0.02425056, "INCLINATION": 99.7512, "RA_OF_ASC_NODE": 70.9556, "ARG_OF_PERICENTER": 316.521, "MEAN_ANOMALY": 41.7039, "EPHEMERIS_TYPE": 0, "CLASSIFICATION_TYPE": "U", "NORAD_CAT_ID": 30155, "ELEMENT_SET_NO": 999, "REV_AT_EPOCH": 94008, "BSTAR": 0.001857638, "MEAN_MOTION_DOT": 2.103e-05, "MEAN_MOTION_DDOT": 0}, "tle": {"line1": "1 30155U 99025TL  25357.21565154  .00002103  00000+0  18576-2 0  9994", "line2": "2 30155  99.7512  70.9556 0242505 316.5210  41.7039 13.73844860940086"}}, "geometry": {"type": "Point", "coordinates": [78.466166942741, -35.02970705938562]}}, {"type": "Feature", "properties": {"norad_id": 30156, "name": "FENGYUN 1C DEB", "group": "fengyun-1c-debris", "lat": 45.99778352818018, "lon": 153.53920191123382, "alt_km": 979.1069177660793, "timestamp": "2025-12-23T18:59:32.242073+00:00", "meta": {"OBJECT_NAME": "FENGYUN 1C DEB", "OBJECT_ID": "1999-025TM", "EPOCH": "2025-12-23T04:30:17.362080", "MEAN_MOTION": 13.80840705, "ECCENTRICITY": 0.01986452, "INCLINATION": 98.9197, "RA_OF_ASC_NODE": 323.6104, "ARG_OF_PERICENTER": 234.7293, "MEAN_ANOMALY": 141.6014, "EPHEMERIS_TYPE": 0, "CLASSIFICATION_TYPE": "U", "NORAD_CAT_ID": 30156, "ELEMENT_SET_NO": 999, "REV_AT_EPOCH": 94835, "BSTAR": 0.00094591717, "MEAN_MOTION_DOT": 1.114e-05, "MEAN_MOTION_DDOT": 0}, "tle": {"line1": "1 30156U 99025TM  25357.18770095  .00001114  00000+0  94592-3 0  9997", "line2": "2 30156  98.9197 323.6104 0198645 234.7293 141.6014 13.80840705948354"}}, "geometry": {"type": "Point", "coordinates": [153.53920191123382, 45.99778352818018]}}, {"type": "Feature", "properties": {"norad_id": 30157, "name": "FENGYUN 1C DEB", "group": "fengyun-1c-debris", "lat": 81.20442564114175, "lon": 12.624965302925515, "alt_km": 725.6113039085631, "timestamp": "2025-12-23T18:59:32.242082+00:00", "meta": {"OBJECT_NAME": "FENGYUN 1C DEB", "OBJECT_ID": "1999-025TN", "EPOCH": "2025-12-22T06:19:10.926624", "MEAN_MOTION": 14.45222561, "ECCENTRICITY": 0.00370684, "INCLINATION": 98.7157, "RA_OF_ASC_NODE": 93.5475, "ARG_OF_PERICENTER": 165.6569, "MEAN_ANOMALY": 258.1181, "EPHEMERIS_TYPE": 0, "CLASSIFICATION_TYPE": "U", "NORAD_CAT_ID": 30157, "ELEMENT_SET_NO": 999, "REV_AT_EPOCH": 98210, "BSTAR": 0.00214453, "MEAN_MOTION_DOT": 7.541e-05, "MEAN_MOTION_DDOT": 0}, "tle": {"line1": "1 30157U 99025TN  25356.26332091  .00007541  00000+0  21445-2 0  9992", "line2": "2 30157  98.7157  93.5475 0037068 165.6569 258.1181 14.45222561982108"}}, "geometry": {"type": "Point", "coordinates": [12.624965302925515, 81.20442564114175]}}]}